[
    {
        "CCSDS_OMM_VERS": "3.0",
        "COMMENT": "GENERATED VIA SPACE-TRACK.ORG API",
        "CREATION_DATE": "2025-05-02T17:35:09",
        "ORIGINATOR": "18 SPCS",
        "OBJECT_NAME": "GALILEO 15 (267)",
        "OBJECT_ID": "2016-069A",
        "CENTER_NAME": "EARTH",
        "REF_FRAME": "TEME",
        "TIME_SYSTEM": "UTC",
        "MEAN_ELEMENT_THEORY": "SGP4",
        "EPOCH": "2025-05-02T03:16:52.297824",
        "MEAN_MOTION": "1.70474121",
        "ECCENTRICITY": "0.00059260",
        "INCLINATION": "55.2527",
        "RA_OF_ASC_NODE": "112.4712",
        "ARG_OF_PERICENTER": "307.3654",
        "MEAN_ANOMALY": "52.5626",
        "EPHEMERIS_TYPE": "0",
        "CLASSIFICATION_TYPE": "U",
        "NORAD_CAT_ID": "41859",
        "ELEMENT_SET_NO": "999",
        "REV_AT_EPOCH": "5239",
        "BSTAR": "0.00000000000000",
        "MEAN_MOTION_DOT": "0.00000037",
        "MEAN_MOTION_DDOT": "0.0000000000000",
        "SEMIMAJOR_AXIS": "29600.306",
        "PERIOD": "844.703",
        "APOAPSIS": "23239.712",
        "PERIAPSIS": "23204.630",
        "OBJECT_TYPE": "PAYLOAD",
        "RCS_SIZE": "LARGE",
        "COUNTRY_CODE": "ESA",
        "LAUNCH_DATE": "2016-11-17",
        "SITE": "FRGUI",
        "DECAY_DATE": null,
        "FILE": "4716995",
        "GP_ID": "286678637",
        "TLE_LINE0": "0 GALILEO 15 (267)",
        "TLE_LINE1": "1 41859U 16069A   25122.13671641  .00000037  00000-0  00000-0 0  9990",
        "TLE_LINE2": "2 41859  55.2527 112.4712 0005926 307.3654  52.5626  1.70474121 52395"
    }
]